type,statut,nom,description,services,logo_url,tags,pays,region,ville,adresse,longitude,latitude,telephone,email,site_web
GUICHET_UNIQUE,Public,CEPICI - Centre de Promotion des Investissements en Côte d'Ivoire,Le CEPICI est le Guichet Unique de l'investissement centralisant les formalités de création d'entreprise,"[Création entreprise 2-5 jours,RCCM,DFE,Compte bancaire,Facilitation investissement,Incitations fiscales]",,"[creation entreprise,investissement,facilitation]",Côte d'Ivoire,Lagunes,Abidjan,"Immeuble Memanou, Boulevard Carde, Plateau",-4.0142,5.3207,+225 27 20 31 14 00,infos.cepici@cepici.ci,https://cepici.gouv.ci
TRIBUNAL_COMMERCE,Public,Tribunal de Commerce d'Abidjan,Juridiction spécialisée de premier degré pour trancher les litiges commerciaux,"[RCCM,Contentieux commercial,Procédures collectives,Arbitrage commercial]",,"[justice,commerce,rccm]",Côte d'Ivoire,Lagunes,Abidjan,"Cocody II Plateaux, Boulevard Latrille",-3.9872,5.3681,+225 27 22 51 03 41,contact@tribunalcommerceabidjan.ci,http://www.tribunalcommerceabidjan.ci
TRIBUNAL_COMMERCE,Public,Tribunal de Commerce de Bouaké,Juridiction commerciale région Centre,"[RCCM régional,Contentieux,Médiation commerciale]",,"[justice,commerce,regional]",Côte d'Ivoire,Gbêkê,Bouaké,Centre-ville Bouaké,-5.0300,7.6900,+225 31 00 00 00,bouake@tribunalcommerce.ci,
TRIBUNAL_COMMERCE,Public,Tribunal de Commerce de Daloa,Juridiction commerciale région Ouest,"[RCCM régional,Contentieux,Procédures simplifiées]",,"[justice,commerce,regional]",Côte d'Ivoire,Haut-Sassandra,Daloa,Centre-ville Daloa,-6.4500,6.8700,+225 32 00 00 00,daloa@tribunalcommerce.ci,
NOTAIRE,Public/Consulaire,Chambre des Notaires de Côte d'Ivoire,Organisme encadrant la profession notariale ivoirienne,"[Annuaire notaires,Formation continue,Médiation,Tarification,Conservation minutes]",,"[notaire,ordre,formation]",Côte d'Ivoire,Lagunes,Abidjan,"Immeuble Horizon, 1er étage, Avenue Delafosse prolongée, Plateau",-4.0142,5.3207,+225 20 32 11 47,chambre@notaire.ci,http://notaire-ci.com
NOTAIRE,Privé,Me FADIKA-DELAFOSSE Christiane,Étude notariale spécialisée droit des affaires,"[Statuts sociétés,Actes commerciaux,Contrats,Conseil juridique,Fusions-acquisitions]",,"[notaire,droit affaires,conseil]",Côte d'Ivoire,Lagunes,Abidjan,"Plateau, Rue du Dr Jamot",-4.0142,5.3207,+225 07 08 84 36 36,etude@fadika-notaire.ci,https://fadika-notaire.ci
NOTAIRE,Privé,Me ANGOUA Lambert,Office notarial avec expertise PME,"[Constitution sociétés,Actes OHADA,Baux commerciaux,Successions]",,"[notaire,ohada,pme]",Côte d'Ivoire,Lagunes,Abidjan,Cocody Ambassades,-3.9850,5.3650,+225 27 22 00 00,angoua@notaire-ci.com,
NOTAIRE,Privé,Me N'GUESSAN Aimée,Notaire spécialisée entrepreneuriat féminin,"[Statuts SARL/SA,Conseil femmes entrepreneurs,Transmission entreprises]",,"[notaire,femmes,transmission]",Côte d'Ivoire,Lagunes,Abidjan,Marcory,-3.9920,5.2950,+225 21 00 00 00,nguessan.notaire@gmail.com,
NOTAIRE,Privé,SCP KOUAME & KOUADIO,Société Civile Professionnelle de Notaires,"[Actes de sociétés,Sûretés,Contrats commerciaux,Due diligence]",,"[notaire,societes,suretes]",Côte d'Ivoire,Lagunes,Abidjan,2 Plateaux,-3.9872,5.3681,+225 22 00 00 00,scp@kouame-kouadio.ci,
NOTAIRE,Privé,Me BROU Rose,Notaire avec focus transmission d'entreprises,"[Cession parts sociales,Transmission PME,Pactes actionnaires]",,"[notaire,transmission,cession]",Côte d'Ivoire,Lagunes,Abidjan,Riviéra 3,-3.9700,5.3400,+225 07 00 00 00,brou@notaire-transmission.ci,
NOTAIRE,Privé,Me TOURE Fatoumata,Notaire spécialisée économie sociale et solidaire,"[Coopératives,Associations,Mutuelles,GIE,Fondations]",,"[notaire,ess,cooperatives]",Côte d'Ivoire,Lagunes,Abidjan,Yopougon,-4.0900,5.3370,+225 23 00 00 00,toure@notaire-ess.ci,
FONDS_INVESTISSEMENT,Privé,Comoé Capital,Premier fonds d'impact dédié aux PME ivoiriennes,"[Investissements 20-300M FCFA,Focus femmes entrepreneurs,Assistance technique,Impact investing]",,"[investissement,impact,femmes,pme]",Côte d'Ivoire,Lagunes,Abidjan,Cocody,-3.9900,5.3500,+225 25 22 00 57 55,infos@comoecapital.com,https://comoecapital.com
FONDS_INVESTISSEMENT,Privé,Janngo Capital,Société panafricaine de capital-risque basée à Abidjan,"[Capital-risque seed/série A,Accélération startups tech,Focus égalité genres,78M USD fund]",,"[startup tech,égalité femmes-hommes,pan-africain]",Côte d'Ivoire,Lagunes,Abidjan,"Deux-Plateaux, Abidjan",-3.9872,5.3681,,contact@janngo.com,https://janngo.com
FONDS_INVESTISSEMENT,Privé,Adiwale Partners,Gestionnaire de fonds private equity indépendant,"[Capital-développement growth equity,Conseil gouvernance,Accès réseaux d'affaires]",,"[PME,private equity,croissance]",Côte d'Ivoire,Lagunes,Abidjan,Abidjan,-4.0305,5.3364,,info@adiwale.com,https://adiwale.com
FONDS_INVESTISSEMENT,Privé,I&P - Investisseurs & Partenaires,Groupe d'investissement d'impact pionnier,"[Investissements 30K-5M USD,Coaching managérial,Suivi ESG,Levée fonds international]",,"[PME,impact,développement]",Côte d'Ivoire,Lagunes,Abidjan,Abidjan,-4.0305,5.3364,+225 27 22 00 00,abidjan@ietp.com,https://www.ietp.com
FONDS_INVESTISSEMENT,Privé,AfricInvest,Société panafricaine de capital-investissement,"[Capital-développement,Capital-risque,Conseil stratégique,Réseau international]",,"[Pan-Africain,multisecteur,expérience]",Côte d'Ivoire,Lagunes,Abidjan,Abidjan,-4.0305,5.3364,,contact@africinvest.com,https://www.africinvest.com
FONDS_INVESTISSEMENT,Privé,Partech Africa,Fonds africain du groupe global Partech,"[Venture capital seed & Série A,Mentorat international,Accès marché global,Support stratégique]",,"[startup tech,fintech,international]",France/Sénégal,Lagunes,Abidjan,Abidjan,-4.0305,5.3364,,africa@partechpartners.com,https://partechpartners.com
FONDS_INVESTISSEMENT,Privé,Ubuntu Capital,Fonds d'investissement et programme d'accélération,"[Investment 50K-500K USD,Acceleration program,Technical assistance,Portfolio support]",,"[investissement,acceleration,tech]",Côte d'Ivoire,Lagunes,Abidjan,Abidjan,-4.0305,5.3364,+225 07 00 00 00,info@ubuntucapital.com,https://ubuntucapital.com
FONDS_INVESTISSEMENT,Privé,Africalink Capital,Fonds d'investissement Tech et Innovation,"[Seed funding,Series A,Tech investments,Exit support]",,"[investissement,tech,venture capital]",Côte d'Ivoire,Lagunes,Abidjan,Plateau,-4.0142,5.3207,+225 27 22 00 00,info@africalink.capital,https://africalink.capital
FONDS_INVESTISSEMENT,Privé,Teranga Capital,Fonds d'investissement impact Afrique de l'Ouest,"[Impact investing,PME financing,Technical assistance,ESG focus]",,"[investissement,impact,esg]",Côte d'Ivoire,Lagunes,Abidjan,Abidjan,-4.0305,5.3364,+225 07 00 00 00,contact@terangacapital.com,https://terangacapital.com
FONDS_INVESTISSEMENT,Privé,Phoenix Capital Management,Gestionnaire de fonds Private Equity UEMOA,"[Private equity,Growth capital,M&A advisory,Portfolio management]",,"[investissement,private equity,uemoa]",Côte d'Ivoire,Lagunes,Abidjan,Plateau,-4.0142,5.3207,+225 20 00 00 00,info@phoenix-capital.ci,https://phoenix-capital.ci
BANQUE_DEVELOPPEMENT,Public,BNI - Banque Nationale d'Investissement,Banque publique de développement et d'investissement,"[Crédits PME jusqu'à 200M FCFA,Taux 6.5%,Garanties souples,Accompagnement,Refinancement]",,"[banque,credit,pme,developpement]",Côte d'Ivoire,Lagunes,Abidjan,"Immeuble BNI, Avenue Franchet d'Esperey, Plateau",-4.0142,5.3207,+225 27 20 20 30 30,contact@bni.ci,https://www.bni.ci
BANQUE_DEVELOPPEMENT,Multilatérale,BAD - Banque Africaine de Développement,Institution multilatérale de financement du développement,"[YEB youth initiative,AFAWA femmes,Infrastructure,Private sector,Lignes crédit PME]",,"[développement,multilatéral,financement grands projets]",Côte d'Ivoire,Lagunes,Abidjan,"Immeuble CCIA, Avenue Jean-Paul II, Plateau",-4.0142,5.3207,+225 27 20 26 39 00,cotedivoire@afdb.org,https://www.afdb.org
BANQUE_DEVELOPPEMENT,Privé,Société Générale CI,Banque universelle avec offre PME,"[Pack Pro PME,Crédits équipement,Affacturage,International banking]",,"[banque,pme,international]",Côte d'Ivoire,Lagunes,Abidjan,5-7 Avenue Joseph Anoma,-4.0142,5.3207,+225 20 20 12 34,entreprises@sgci.ci,https://societegenerale.ci
BANQUE_DEVELOPPEMENT,Privé,Ecobank Côte d'Ivoire,Banque panafricaine avec solutions PME,"[Rapidtransfer,Trade finance,Crédits PME,Digital banking]",,"[banque,panafricain,digital]",Côte d'Ivoire,Lagunes,Abidjan,"Immeuble Alliance, Plateau",-4.0142,5.3207,+225 20 31 92 00,ecobank@ecobank.com,https://ecobank.com/ci
BANQUE_DEVELOPPEMENT,Privé,Bridge Bank Group Côte d'Ivoire,Banque commerciale avec focus PME,"[Crédits PME,Trade finance,Facilité IFC 40M USD,Cash management]",,"[banque,pme,commerce]",Côte d'Ivoire,Lagunes,Abidjan,14 agences Abidjan,-4.0305,5.3364,+225 27 20 00 00,info@bridgebankgroup.com,https://bridgebankgroup.com
BANQUE_DEVELOPPEMENT,Privé,BHCI - Banque de l'Habitat,Banque spécialisée habitat et PME,"[Crédits immobiliers,Financement PME BTP,Garanties hypothécaires,Leasing]",,"[banque,immobilier,btp]",Côte d'Ivoire,Lagunes,Abidjan,"Avenue Delafosse, Plateau",-4.0142,5.3207,+225 20 00 00 00,contact@bhci.ci,https://bhci.ci
MICROFINANCE,Privé,Advans Côte d'Ivoire,Institution de microfinance digitale,"[Micro-crédits,Crédits agricoles,Épargne,26 agences,Mobile banking]",,"[microfinance,digital,pme]",Côte d'Ivoire,National,National,"Siège: II Plateaux Vallon, Cocody",-3.9872,5.3681,+225 27 22 59 12 00,contact@advanscotedivoire.com,https://www.advanscotedivoire.com
MICROFINANCE,Privé,Baobab Côte d'Ivoire,Leader de la microfinance avec réseau national,"[Microcrédits 100K-300M FCFA,Épargne,37 agences,Mobile banking,Micro-assurance]",,"[TPE,inclusion financière,prêt rapide]",Côte d'Ivoire,National,National,"Siège: Plateau, Immeuble SCI Broodco",-4.0142,5.3207,+225 27 20 30 69 00,,https://baobab.com/cote-divoire
MICROFINANCE,Privé,COFINA Côte d'Ivoire,Institution de méso-finance entre micro et banque,"[Crédits PME,Crédit-bail,Affacturage,Programme Fin'Elle femmes]",,"[mésofinance,PME,femmes entrepreneurs]",Côte d'Ivoire,Lagunes,Abidjan,"Plateau, Avenue Lamblin",-4.0142,5.3207,+225 27 20 21 60 50,contact@cofinacorp.com,http://cofinacorp.com
MICROFINANCE,Privé,Kolinvest,Plateforme ivoirienne de financement participatif crowdfunding,"[Crowdlending,Prêt participatif en ligne,Suivi campagne,Communauté investisseurs]",,"[crowdfunding,prêt en ligne,startup fintech]",Côte d'Ivoire,Lagunes,Abidjan,Abidjan,-4.0305,5.3364,,contact@kolinvest.ci,https://kolinvest.ci
MICROFINANCE,Privé,Oukaley,Plateforme numérique de crowdfunding par dons et préventes,"[Crowdfunding dons,Contreparties,Campagne vidéo,Accompagnement communication]",,"[crowdfunding,dons,projets créatifs]",Côte d'Ivoire,Lagunes,Abidjan,Abidjan,-4.0305,5.3364,,contact@oukaley.com,https://oukaley.com
MICROFINANCE,Coopérative,UNACOOPEC-CI,Union Nationale des Coopératives d'Épargne et de Crédit,"[Microcrédits,Épargne,Programme jeunes AGIR,Education financière,Mobile banking]",,"[microfinance,cooperative,epargne]",Côte d'Ivoire,National,National,Siège Plateau,-4.0142,5.3207,+225 20 00 00 00,info@unacoopec.com,https://unacoopec.com
MICROFINANCE,Privé,MANSA Bank,Banque digitale pour l'inclusion financière,"[Mobile banking,Microcrédits digital,Épargne mobile,Paiements]",,"[microfinance,digital,mobile]",Côte d'Ivoire,Lagunes,Abidjan,Cocody,-3.9900,5.3500,+225 07 00 00 00,contact@mansabank.com,https://mansabank.com
MICROFINANCE,Association,MUCREFAB,Mutuelle de Crédit et d'Épargne des Femmes,"[Microcrédits femmes,Tontines,Formation entrepreneuriale,Solidarité]",,"[microfinance,femmes,mutuelle]",Côte d'Ivoire,Lagunes,Abidjan,Abobo,-4.0160,5.4180,+225 07 00 00 00,info@mucrefab.ci,https://mucrefab.ci
MICROFINANCE,Privé,ALIOS Finance CI,Institution de crédit-bail et location,"[Leasing équipement,Location longue durée,Financement actifs,PME/PMI]",,"[leasing,financement,equipement]",Côte d'Ivoire,Lagunes,Abidjan,"Zone 4, Marcory",-3.9920,5.2950,+225 21 00 00 00,cotedivoire@alios-finance.com,https://alios-finance.com
INCUBATEUR_ACCELERATEUR,Programme public-privé,Orange Corners Côte d'Ivoire,Programme d'incubation pour jeunes entrepreneurs financé par Pays-Bas,"[Incubation 6 mois,Formations business,Mentorat,Coworking,Mise en relation investisseurs]",,"[incubation,jeunes entrepreneurs,innovation]",Côte d'Ivoire,Lagunes,Abidjan,Cocody,-3.9900,5.3500,,abidjan@orangecorners.com,https://www.orangecorners.com/country/cote-divoire
INCUBATEUR_ACCELERATEUR,Corporate,Orange Fab CI,Accélérateur corporate d'Orange pour startups tech,"[Accélération 6 mois,Coworking high-tech,Mentorat Orange,Financement amorçage,Accès API]",,"[corporate,tech,telecom,acceleration]",Côte d'Ivoire,Lagunes,Abidjan,"Orange Digital Center, Deux Plateaux",-3.9872,5.3681,,orangefab@orange.com,https://business.orange.ci
INCUBATEUR_ACCELERATEUR,Corporate,Y'ello Startup (MTN),Programme d'accélération de MTN CI,"[Accélération 4 mois,5M FCFA financement,Mentorat MTN,Accès plateforme,Market access]",,"[corporate,tech,telecom,financement]",Côte d'Ivoire,Lagunes,Abidjan,"Avenue Crossons Duplessis, Plateau",-4.0142,5.3207,+225 05 00 00 00,startup@mtn.ci,https://yellostartup.mtn.ci
INCUBATEUR_ACCELERATEUR,Corporate,Yiri (AGL Africa),Accélérateur lancé par Africa Global Logistics,"[Accélération 6 mois,Coworking industriel,Coaching logistique,Mise en réseau corporate]",,"[logistique,supply chain,corporate VC]",Côte d'Ivoire,Lagunes,Abidjan,Zone Portuaire d'Abidjan,-4.0000,5.2800,,yiri@aglgroup.com,https://www.aglgroup.com
INCUBATEUR_ACCELERATEUR,Corporate,ZEBOX West Africa,Hub d'innovation CMA CGM pour startups,"[3 programmes acceleration,Coworking 400m²,PoC factory,Corporate partnerships,Scale-up support]",,"[logistique,maritime,réseau international]",Côte d'Ivoire,Lagunes,Abidjan,"Ivoire Trade Center, Zone 4",-3.9920,5.2950,+225 27 22 00 00,westafrica@ze-box.io,https://ze-box.io/west-africa
INCUBATEUR_ACCELERATEUR,Thématique,Incub'Ivoir,Incubateur spécialisé secteur agricole et agroalimentaire,"[Agricultural incubation,Speed Farmer program,Agribusiness training,Market linkage]",,"[agriculture,agroalimentaire,innovation rurale]",Côte d'Ivoire,Lagunes,Abidjan,Yopougon,-4.0900,5.3370,,contact@incubivoir.net,http://www.incubivoir.net
INCUBATEUR_ACCELERATEUR,Startup Studio,MStudio VC,Premier startup studio d'Afrique francophone,"[Venture studio co-création,Financement pré-amorçage,Ressources mutualisées,Mentorat experts]",,"[startup studio,mobile,économie informelle]",Côte d'Ivoire,Lagunes,Abidjan,Cocody,-3.9900,5.3500,,hello@mstudio.vc,https://www.mstudio.vc
INCUBATEUR_ACCELERATEUR,Tech Hub Privé,ADEI Tech Hub,Hub technologique formant et connectant les acteurs tech,"[Tech Talent Accelerator,Incubation tech,Formation coding,FabLab,Networking events]",,"[tech,formation,innovation,digital]",Côte d'Ivoire,Lagunes,Abidjan,Koumassi,-4.0500,5.3000,+225 27 22 00 00,info@adei.ci,https://hub.adeiinstitute.org
INCUBATEUR_ACCELERATEUR,Académique,Incubateur Université FHB,Structure d'incubation académique pour étudiants,"[Pré-incubation étudiants,Formation entrepreneurship,Mentorat académique,Concours pitch]",,"[étudiant-entrepreneur,innovation universitaire,transfert technologie]",Côte d'Ivoire,Lagunes,Abidjan,"Université FHB, Cocody",-3.9900,5.3500,,incubateur@univ-fhb.ci,https://univ-fhb.edu.ci/incubateur
INCUBATEUR_ACCELERATEUR,ONG,EntraAfrica (Programme),Programme d'incubation panafricain en ligne,"[Incubation virtuelle,Formation en ligne,Mentorat à distance,Communauté entrepreneurs]",,"[incubation en ligne,jeunes entreprises,développement local]",Côte d'Ivoire,En ligne,Abidjan,Plateforme numérique,-4.0305,5.3364,,via Facebook @EntraAfrica,https://www.facebook.com/EntraAfrica
INCUBATEUR_ACCELERATEUR,Communautaire,Impact Hub Abidjan,Hub global d'innovation sociale et entrepreneuriat,"[Coworking,WIC Academy femmes,Booster for Youth,Impact programs,Events space]",,"[impact,social,coworking,femmes]",Côte d'Ivoire,Lagunes,Abidjan,"Riviéra 3 Triangle, II Plateaux Cocody",-3.9700,5.3400,+225 68 84 91 90,abidjan@impacthub.net,https://abidjan.impacthub.net
INCUBATEUR_ACCELERATEUR,Corporate,Moov Innovation Center,Programme d'incubation de Moov Africa,"[Incubation services numériques,Accès APIs Moov,Formations business,Support technique]",,"[télécom,mobile services,corporate]",Côte d'Ivoire,Lagunes,Abidjan,Treichville,-4.0050,5.2900,,startup@moov-africa.ci,https://www.moov-africa.ci/startup
INCUBATEUR_ACCELERATEUR,Institutionnel,Cofina Startup House,Incubateur adossé à COFINA pour jeunes entreprises,"[Incubation fintech,Coaching affaires,Financement amorçage,Mise en réseau bancaire]",,"[fintech,mésofinance,innovation financière]",Côte d'Ivoire,Lagunes,Abidjan,Plateau,-4.0142,5.3207,,startup@cofinacorp.com,https://cofinacorp.com/startuphouse
INCUBATEUR_ACCELERATEUR,Privé,ADN Factory,Hub d'innovation et accélération pour startups tech,"[Incubation early-stage,Accélération growth,Mentorat experts,Démo day,Investisseurs]",,"[startup tech,accélération,mentors]",Côte d'Ivoire,Lagunes,Abidjan,Cocody,-3.9900,5.3500,,contact@adnfactory.com,https://www.facebook.com/ADNFactory
INCUBATEUR_ACCELERATEUR,Global,Seedstars Abidjan,Incubateur et accélérateur du réseau international Seedstars,"[Accélération 3 mois,Coworking international,Mentorat global,Bootcamps,Seedstars World]",,"[accélération,international,seed funding]",Côte d'Ivoire,Lagunes,Abidjan,Plateau,-4.0142,5.3207,,abidjan@seedspace.co,https://www.seedspace.co
INCUBATEUR_ACCELERATEUR,Corporate/ONG,MakeSense Afrique,Organisation internationale d'innovation sociale,"[Incubation projets sociaux,Ateliers co-création,Hackathons,Mentors bénévoles]",,"[innovation sociale,communauté,open innovation]",Côte d'Ivoire,Lagunes,Abidjan,"Zone 4, Abidjan",-3.9920,5.2950,,abidjan@makesense.org,https://www.makesense.org
INCUBATEUR_ACCELERATEUR,Public,Dream Factory (CI PME),Hub d'innovation public de l'Agence CI PME,"[Incubation gratuite,Coworking public,Formations,Événements,Aides publiques]",,"[gouvernemental,hub public,innovation locale]",Côte d'Ivoire,Lagunes,Abidjan,Plateau,-4.0142,5.3207,,contact@agencecipme.ci,https://www.facebook.com/DreamFactoryCI
INCUBATEUR_ACCELERATEUR,Association,Ayiyikoh,Incubateur communautaire pour jeunes porteurs de projets,"[Pré-incubation,Formations gestion,Développement personnel,Networking,Orientation]",,"[jeunes entrepreneurs,pré-incubation,formation base]",Côte d'Ivoire,Lagunes,Abidjan,Marcory,-3.9920,5.2950,,ayiyikoh@gmail.com,https://www.facebook.com/ayiyikoh.incubation
INCUBATEUR_ACCELERATEUR,Fondation publique,Smart Up – Fondation Jeunesse Numérique,Programme d'incubation de la FJN pour compétences numériques,"[Bootcamps code & business,Incubation post-bootcamp,Coaching numérique,Fab lab]",,"[jeunesse,numérique,e-inclusion]",Côte d'Ivoire,Lagunes,Abidjan,Plateau,-4.0142,5.3207,,contact@fjn.ci,https://www.fjn.ci
INCUBATEUR_ACCELERATEUR,Privé,ABX Accelerator,Accélérateur tech leader avec programme intensif de 16 semaines,"[Programme accélération,Mentorat,Coaching,Support financier 30M FCFA,Investment readiness]",,"[tech,startup,acceleration,fintech]",Côte d'Ivoire,Lagunes,Abidjan,"Boulevard Arsène Usher Assouan, Cocody",-4.0201,5.3097,+225 07 07 07 07,info@abxaccel.com,https://abxaccel.com
INCUBATEUR_ACCELERATEUR,PPP,CGECI Accélérateur,Programme d'accélération de la Confédération Générale des Entreprises,"[CGECI Academy,Business Plan Competition,PRODIJE,Tech@work,Mentorat CEOs]",,"[pme,acceleration,formation,jeunes]",Côte d'Ivoire,Lagunes,Abidjan,"Maison de l'Entreprise, Plateau",-4.0142,5.3207,+225 20 33 02 02,accelerateur@cgeci.ci,https://cgeci.com
INCUBATEUR_ACCELERATEUR,Privé,HEC Challenge Plus,Programme d'accélération HEC Paris en Afrique,"[Programme 8 mois,30000 EUR funding,Mentorship international,Training bootcamps,Demo Day]",,"[education,acceleration,international]",Côte d'Ivoire,Lagunes,Abidjan,"House of Enterprises, Abidjan",-4.0142,5.3207,+225 20 00 00 00,challengeplus@hec.fr,https://hec.edu/challenge-plus
INCUBATEUR_ACCELERATEUR,Privé,ESPartners,Cabinet d'accompagnement et investissement intelligent,"[Advisory services,Intelligent capital,Leadership training,Strategic consulting,Investment facilitation]",,"[conseil,investissement,formation]",Côte d'Ivoire,Lagunes,Abidjan,"Cocody II Plateaux, Rue Saint Jacques 28",-3.9872,5.3681,+225 27 22 50 00,info@espartners.co,https://espartners.co
INCUBATEUR_ACCELERATEUR,Privé,Fondation Jeunesse Numérique,Fondation dédiée à l'entrepreneuriat digital des jeunes,"[Accompagnement digital,Coaching entrepreneurial,Financement jeunes,Formation numérique,Bootcamps]",,"[jeunesse,digital,formation]",Côte d'Ivoire,Lagunes,Abidjan,Abidjan,-4.0305,5.3364,+225 07 00 00 00,info@fjn.ci,https://fjn.ci
INCUBATEUR_ACCELERATEUR,Privé,INOVIS,Hub d'innovation et d'entrepreneuriat,"[Incubation,Acceleration,Coworking,Training,Investment facilitation]",,"[innovation,entrepreneuriat,tech]",Côte d'Ivoire,Lagunes,Abidjan,Abidjan,-4.0305,5.3364,+225 07 00 00 00,contact@inovis.ci,https://inovis.ci
HUB_INNOVATION,Banque,Innovation Lab – Société Générale CI,Laboratoire d'innovation fintech de SGCI,"[Laboratoire fintech,Open API bancaire,Co-création produits,Mentorat,POC financiers]",,"[fintech,banque,open innovation]",Côte d'Ivoire,Lagunes,Abidjan,Plateau,-4.0142,5.3207,,innovation@socgen.com,https://societegenerale.ci
HUB_INNOVATION,Privé,Akendewa Tech Hub,Espace d'innovation et d'incubation tech depuis 2009,"[Communauté développeurs,Barcamp Abidjan,Projets open-source,Formations coding]",,"[tech community,open source,pionnier]",Côte d'Ivoire,Lagunes,Abidjan,Abidjan,-4.0305,5.3364,+225 07 08 09 10,contact@akendewa.org,http://akendewa.org
HUB_INNOVATION,Communautaire,O'Village,Tiers-lieu d'innovation sociale et numérique créé en 2014,"[Tiers-lieu open-source,Ateliers logiciels libres,Communauté autogérée,Projets civiques]",,"[open-source,innovation sociale,communauté]",Côte d'Ivoire,Lagunes,Abidjan,Yopougon Niangon,-4.0900,5.3370,,info@ovillage.ci,http://www.ovillage.ci
HUB_INNOVATION,PPP,French Tech Abidjan,Communauté French Tech pour l'écosystème startup francophone,"[Networking events,Workshops,Facilitation internationale,Mentoring,Promotion startups]",,"[tech,francophone,networking,international]",Côte d'Ivoire,Lagunes,Abidjan,Abidjan,-4.0305,5.3364,+225 07 07 07 07,abidjan@lafrenchtech.com,https://lafrenchtech.com
HUB_INNOVATION,Public,Hub Ivoire Tech,Hub d'innovation gouvernemental pour la tech,"[Incubation,Coworking,FabLab,Formation tech,Événements innovation]",,"[gouvernement,tech,innovation]",Côte d'Ivoire,Lagunes,Abidjan,Abidjan,-4.0305,5.3364,+225 20 00 00 00,contact@hubivoiretech.ci,https://hubivoiretech.ci
ESPACE_COWORKING,Privé,Le Phare Coworking,Premier espace de coworking moderne d'Abidjan,"[Open space,Bureaux privés,Salles réunion,Événements networking,Communauté]",,"[coworking,innovation,communauté]",Côte d'Ivoire,Lagunes,Abidjan,Cocody Angré,-3.9750,5.3550,,contact@pharecoworking.com,https://www.pharecoworking.com
ESPACE_COWORKING,Privé,AkwaHub,Espace de coworking et hub créatif,"[Coworking space,Studios créatifs,Incubation interne,Workshops,Conférences tech]",,"[coworking,créativité,tech]",Côte d'Ivoire,Lagunes,Abidjan,Cocody II Plateaux,-3.9872,5.3681,,hello@akwahub.net,https://www.akwahub.net
ESPACE_COWORKING,Privé,AfricaWorks Abidjan,Chaîne panafricaine d'espaces de coworking premium,"[Bureaux flexibles premium,Salles réunion pro,Services support,Networking corporate]",,"[coworking haut de gamme,réseau panafricain]",Côte d'Ivoire,Lagunes,Abidjan,"Plateau, Immeuble Nour Al Hayat",-4.0142,5.3207,,abidjan@africaworks.com,https://www.africaworks.co
ESPACE_COWORKING,Privé,Colab Abidjan,Espace de coworking innovant interdisciplinaire,"[Coworking open-space,Studio multimédia,Coin fablab,Communauté en ligne]",,"[créatifs,collaboration,fablab urbain]",Côte d'Ivoire,Lagunes,Abidjan,Cocody Riviera,-3.9700,5.3400,,contact@colab.ci,https://colab.andcards.com
ESPACE_COWORKING,Privé,My Address,Espace de coworking et centre d'affaires,"[Domiciliation entreprise,Coworking,Salles réunion,Services secrétariat]",,"[domiciliation,centre affaires,formalisation]",Côte d'Ivoire,Lagunes,Abidjan,"Plateau, Avenue Nogues",-4.0142,5.3207,,contact@myaddress-ci.com,https://www.myaddress-ci.com
ESPACE_COWORKING,Privé,Seedspace Abidjan,Hub entrepreneurial et espace de coworking Seedstars,"[Coworking 24/7,Investment Readiness,Seedstars programs,Events,Mentoring]",,"[coworking,investissement,seedstars]",Côte d'Ivoire,Lagunes,Abidjan,"Zone 4, Rue du Canal",-3.9920,5.2950,+225 27 22 00 00,abidjan@seedspace.co,https://seedspace.co/abidjan
ESPACE_COWORKING,Association,Jokkolabs Abidjan,Espace de coworking et communauté d'entrepreneurs,"[Coworking solidaire,Events hosting,Community building,Networking,Training]",,"[coworking solidaire,innovation sociale]",Côte d'Ivoire,Lagunes,Abidjan,"Angré, II Plateaux Vallon",-3.9750,5.3550,+225 07 00 00 00,abidjan@jokkolabs.net,https://jokkolabs.net
ESPACE_COWORKING,Privé,Regus Côte d'Ivoire,Leader mondial des espaces de travail flexibles,"[Bureaux équipés,Salles réunion pro,Domiciliation,Business lounge,Réseau global]",,"[business center,flexible office,international]",Côte d'Ivoire,Lagunes,Abidjan,"Plateau, Immeuble XL",-4.0142,5.3207,+225 27 20 31 41 00,,https://www.regus.com
ESPACE_COWORKING,Association,Baby Lab (FabLab Abobo),Premier FabLab de Côte d'Ivoire créé en 2014,"[FabLab,Ateliers enfants,Réparation informatique,Formation numérique,Makers]",,"[FabLab,éducation numérique,inclusion]",Côte d'Ivoire,Lagunes,Abidjan,Abobo Derrière-rails,-4.0160,5.4180,,babylab@gmail.com,https://www.fablabs.io/labs/babylab
ESPACE_COWORKING,Privé,H-FABLAB,FabLab moderne orienté AgriTech et IoT,"[FabLab,Formation makers,AgriTech innovation,3D printing,Projets Green Tech]",,"[FabLab,IoT,agritech]",Côte d'Ivoire,Lagunes,Bingerville,Bingerville,-3.8950,5.3550,+225 07 00 00 00,contact@h-fablab.org,http://www.h-fablab.org
MINISTERE_AGENCE,Public,Ministère de l'Entrepreneuriat National et des PME,Ministère chargé de la politique PME et entrepreneuriat,"[Politique PME,Startup Act,Tutelle CI PME,Programmes jeunes,Formalisation]",,"[gouvernement,politique PME,entrepreneuriat]",Côte d'Ivoire,Lagunes,Abidjan,"Tour A Immeuble Sciam, Plateau",-4.0142,5.3207,+225 27 20 33 16 50,info@entrepreneuriat.gouv.ci,https://entrepreneuriat.gouv.ci
MINISTERE_AGENCE,Public,Ministère de la Transition Numérique,Ministère en charge de la transformation digitale,"[Politique numérique,Innovation digitale,E-gouvernement,Soutien startups tech]",,"[gouvernement,digital,innovation]",Côte d'Ivoire,Lagunes,Abidjan,"Immeuble Postel 2001, Plateau",-4.0142,5.3207,+225 27 20 34 73 72,ministere@telecom.gouv.ci,http://www.telecom.gouv.ci
MINISTERE_AGENCE,Public,Ministère du Commerce et de l'Industrie,Ministère en charge du commerce et développement industriel,"[Régulation commerce,Promotion PME,Politique industrielle,Facilitation export]",,"[gouvernement,commerce,industrie]",Côte d'Ivoire,Lagunes,Abidjan,"Immeuble Postel 2001, Plateau",-4.0142,5.3207,+225 20 22 95 28,info@commerce.gouv.ci,https://commerce.gouv.ci
MINISTERE_AGENCE,Public,Ministère de la Jeunesse,Ministère en charge de la jeunesse et insertion professionnelle,"[Politique jeunesse,Programme entrepreneuriat,Formation professionnelle,Insertion jeunes]",,"[gouvernement,jeunesse,formation]",Côte d'Ivoire,Lagunes,Abidjan,Plateau,-4.0142,5.3207,+225 20 00 00 00,info@jeunesse.gouv.ci,https://jeunesse.gouv.ci
MINISTERE_AGENCE,Public,Secrétariat d'État chargé de l'Autonomisation des Femmes,Structure gouvernementale pour l'autonomisation économique des femmes,"[Entrepreneuriat féminin,Financement femmes,Formation genre,Autonomisation économique]",,"[femmes,genre,autonomisation]",Côte d'Ivoire,Lagunes,Abidjan,Plateau,-4.0142,5.3207,+225 20 00 00 00,info@femmes.gouv.ci,https://femmes.gouv.ci
AGENCE_PROMOTION,Public,Agence Côte d'Ivoire PME,Agence nationale de promotion des PME,"[Financement PME,Formation entrepreneuriale,Incubation,Formalisation,Conseil PME]",,"[pme,financement,formation]",Côte d'Ivoire,Lagunes,Abidjan,"Tour A 1er Étage Plateau, Immeuble Sciam",-4.0142,5.3207,+225 27 20 23 93 31,info@agencecipme.ci,https://agencecipme.ci
AGENCE_PROMOTION,Public,Agence Emploi Jeunes,Agence gouvernementale pour l'emploi et entrepreneuriat jeune,"[Formation entrepreneuriat,Financement jeunes,C2D emploi,Stage emploi,PEJEDEC]",,"[jeunesse,emploi,entrepreneuriat]",Côte d'Ivoire,Lagunes,Abidjan,"39 Boulevard Clozel, Plateau",-4.0150,5.3210,+225 20 00 00 00,info@agenceemploijeunes.ci,https://agenceemploijeunes.ci
AGENCE_PROMOTION,Public,APEX-CI,Agence de Promotion des Exportations de Côte d'Ivoire,"[Information marchés,Formation normes export,Missions commerciales,Label qualité]",,"[export,commerce international,soutien PME]",Côte d'Ivoire,Lagunes,Abidjan,"Plateau, Immeuble CCIA",-4.0142,5.3207,+225 27 20 33 34 20,contact@apex-ci.org,http://www.apex-ci.org
AGENCE_PROMOTION,Public,CEPICI - Service Diaspora,Service du CEPICI dédié aux investisseurs de la diaspora,"[Accueil diaspora,Appui création entreprise,Banque projets régionaux,Forums diaspora]",,"[diaspora,investissement,retour au pays]",Côte d'Ivoire,Lagunes,Abidjan,"Plateau, Immeuble Memanou",-4.0142,5.3207,+225 27 20 31 14 00,diaspora@cepici.ci,https://cepici.gouv.ci/diaspora
AGENCE_PROMOTION,Public,FDFP,Fonds de Développement de la Formation Professionnelle,"[Formation continue,Apprentissage,Perfectionnement PME,Certification professionnelle]",,"[formation,apprentissage,competences]",Côte d'Ivoire,Lagunes,Abidjan,Plateau,-4.0142,5.3207,+225 20 00 00 00,info@fdfp.ci,https://fdfp.ci
AGENCE_PROMOTION,Public,AGEPE,Agence d'Études et de Promotion de l'Emploi,"[Études emploi,Intermédiation,Orientation professionnelle,Statistiques emploi]",,"[emploi,etudes,orientation]",Côte d'Ivoire,Lagunes,Abidjan,Plateau,-4.0142,5.3207,+225 20 00 00 00,contact@agepe.ci,https://agepe.ci
AGENCE_PROMOTION,Public,MPME CI,Ministère de la Promotion des PME,"[Politique PME,Facilitation administrative,Programme financement,Formation entrepreneuriale]",,"[gouvernement,pme,politique]",Côte d'Ivoire,Lagunes,Abidjan,Plateau,-4.0142,5.3207,+225 20 00 00 00,info@mpme.ci,https://mpme.ci
AGENCE_PROMOTION,Public,ANSUT,Agence Nationale du Service Universel des Télécommunications,"[Service universel,Accès TIC rural,Formation digitale,Infrastructure télécom]",,"[telecom,inclusion digitale,rural]",Côte d'Ivoire,Lagunes,Abidjan,"Riviera Attoban, Cocody",-3.9650,5.3450,+225 27 22 52 95 05,contact@ansut.ci,https://ansut.ci
CHAMBRE_COMMERCE,Public,CCI-CI,Chambre de Commerce et d'Industrie de Côte d'Ivoire,"[Formation commerce,Export support,Certification origine,B2B matchmaking,18 bureaux]",,"[chambre commerce,export,formation]",Côte d'Ivoire,Lagunes,Abidjan,"1 Avenue Joseph Anoma, Plateau",-4.0142,5.3207,+225 20 33 16 00,info@cci.ci,http://www.cci.ci
CHAMBRE_COMMERCE,Privé,CCI France Côte d'Ivoire,Chambre de Commerce France-Côte d'Ivoire,"[Business France,Matchmaking B2B,Prospection marchés,VIE program,600 membres]",,"[chambre commerce,france,international]",Côte d'Ivoire,Lagunes,Abidjan,"Boulevard de Marseille, Biétry",-4.0000,5.2800,+225 27 21 25 82 06,contact@ccifci.org,https://ccifci.org
CHAMBRE_COMMERCE,Privé,AmCham Côte d'Ivoire,American Chamber of Commerce,"[US business facilitation,Trade missions,Advocacy,Networking,400 membres]",,"[chambre commerce,usa,networking]",Côte d'Ivoire,Lagunes,Abidjan,67 Boulevard Charles De Gaulle,-4.0100,5.3100,+225 25 22 015 638,info@amcham-ci.org,https://amcham-ci.org
CHAMBRE_COMMERCE,Privé,Chambre de Commerce Libanaise,Chambre de commerce communauté libanaise,"[Import/export,Networking diaspora,Commerce international]",,"[chambre commerce,diaspora,import export]",Côte d'Ivoire,Lagunes,Abidjan,Marcory,-3.9920,5.2950,+225 21 00 00 00,ccl@liban-ci.org,
CHAMBRE_COMMERCE,Privé,Chambre de Commerce Chinoise CI,Chambre commerce communauté chinoise,"[Trade Chine-CI,Import facilitation,B2B China,Language support]",,"[chambre commerce,chine,trade]",Côte d'Ivoire,Lagunes,Abidjan,Marcory,-3.9920,5.2950,+225 07 00 00 00,cccaci@china-ci.org,
CENTRE_FORMATION,ONG Internationale,IECD,Institut Européen de Coopération et de Développement,"[Formation professionnelle,Programme PATPE,Mentorat PME,TRANSFORM agro,Clubs entrepreneurs]",,"[formation entrepreneurs,ONG,économie locale]",Côte d'Ivoire,Lagunes,Abidjan,Cocody Bonoumin,-3.9900,5.3500,+225 02 400 225,ci@iecd.org,https://www.iecd.org/cote-divoire
CENTRE_FORMATION,ONG,Empow'Her Côte d'Ivoire,Organisation internationale pour l'autonomisation économique des femmes,"[Formations business femmes,Incubation projets féminins,Mentorat femmes leaders,Coworking]",,"[femmes,inclusion,capacity building]",Côte d'Ivoire,Lagunes,Abidjan,Cocody Angré,-3.9750,5.3550,,cotedivoire@empow-her.com,https://empow-her.com
ASSOCIATION_ENTREPRENEURIALE,Privé,MPME CI,Mouvement des PME de Côte d'Ivoire,"[Représentation PME,Lobbying,Formations,Networking,Assistance juridique/fiscale]",,"[PME,association patronale,plaidoyer]",Côte d'Ivoire,Lagunes,Abidjan,Plateau,-4.0142,5.3207,,mpme.ci@gmail.com,
ASSOCIATION_ENTREPRENEURIALE,International,La French Tech Abidjan,Communauté French Tech réunissant l'écosystème tech francophone,"[Réseau startup,Networking franco-ivoirien,Événements tech,Promotion internationale]",,"[communauté tech,diaspora,coopération]",Côte d'Ivoire,Lagunes,Abidjan,Plateau,-4.0142,5.3207,,abidjan@lafrenchtech.com,https://lafrenchtech.com
ASSOCIATION_ENTREPRENEURIALE,International,CEI Diaspora (CCEDIAF),Club des Entrepreneurs Ivoiriens de la Diaspora,"[Réseau business diaspora,Forums investissement,Missions économiques,Mentorat]",,"[diaspora,réseau affaires,investissement]",France/Côte d'Ivoire,Île-de-France/Lagunes,Paris/Abidjan,Paris France,-2.3522,48.8566,,contact@ccediaf.org,https://ccediaf.org
ASSOCIATION_ENTREPRENEURIALE,Privé,CGECI,Confédération Générale des Entreprises de Côte d'Ivoire,"[Représentation patronale,Plaidoyer,Formation dirigeants,200+ entreprises membres]",,"[patronat,entreprises,plaidoyer]",Côte d'Ivoire,Lagunes,Abidjan,"Maison de l'Entreprise, Plateau",-4.0142,5.3207,+225 20 33 02 02,cgeci@cgeci.com,https://cgeci.com
ASSOCIATION_ENTREPRENEURIALE,Privé,FIPME,Fédération Ivoirienne des PME,"[Plaidoyer PME,Ateliers formation,Genre et PME,31 régions,14 districts]",,"[pme,federation,plaidoyer]",Côte d'Ivoire,National,National,Plateau,-4.0142,5.3207,+225 20 00 00 00,info@fipme.ci,https://fipme.ci
ASSOCIATION_ENTREPRENEURIALE,Privé,FENACCI,Fédération Nationale des Chambres de Commerce,"[1.5M membres,Carte professionnelle,Formation continue,159 sections locales]",,"[commerce,federation,formation]",Côte d'Ivoire,National,National,"Avenue Noguès, Plateau",-4.0142,5.3207,+225 20 00 00 00,contact@fenac-ci.org,https://fenac-ci.org
ASSOCIATION_ENTREPRENEURIALE,Non-profit,JCI Côte d'Ivoire,Jeune Chambre Internationale,"[Leadership 18-40 ans,Formation soft skills,32 chapitres locaux,Réseautage]",,"[jeunesse,leadership,networking]",Côte d'Ivoire,National,National,Plateau,-4.0142,5.3207,+225 07 00 00 00,president@jci-ci.org,https://jci-ci.org
ASSOCIATION_ENTREPRENEURIALE,Privé,APEX-CI Banques,Association Professionnelle des Banques,"[Représentation bancaire,Formation bancaire,Inclusion financière,Mobile money]",,"[banques,finance,formation]",Côte d'Ivoire,Lagunes,Abidjan,Plateau,-4.0142,5.3207,+225 20 00 00 00,apex@apexci.org,https://apexci.org
ASSOCIATION_ENTREPRENEURIALE,Privé,ROADCI,Réseau Ouest Africain des Femmes Entrepreneures,"[Networking femmes,Formation leadership,Mentorat,Commerce transfrontalier]",,"[femmes,reseau,leadership]",Côte d'Ivoire,Lagunes,Abidjan,Cocody,-3.9900,5.3500,+225 07 00 00 00,cotedivoire@roadci.org,https://roadci.org
ASSOCIATION_ENTREPRENEURIALE,Privé,RICOMEN,Réseau Ivoirien des Commerçantes,"[Commerce femmes,Microfinance,Formation commerce,Plaidoyer genre]",,"[femmes,commerce,microfinance]",Côte d'Ivoire,National,National,Adjamé,-4.0260,5.3360,+225 07 00 00 00,ricomen@gmail.com,
ASSOCIATION_ENTREPRENEURIALE,Privé,Club des Entrepreneurs CI,Club d'affaires et networking,"[Networking premium,Conférences,Mentorat,Deal flow]",,"[networking,affaires,mentorat]",Côte d'Ivoire,Lagunes,Abidjan,Cocody,-3.9900,5.3500,+225 07 00 00 00,contact@club-entrepreneurs.ci,https://club-entrepreneurs.ci
ASSOCIATION_ENTREPRENEURIALE,Privé,AFCI - Association Fintech CI,Association des Fintech de Côte d'Ivoire,"[Plaidoyer fintech,Régulation,Innovation financière,Standards]",,"[fintech,innovation,regulation]",Côte d'Ivoire,Lagunes,Abidjan,Plateau,-4.0142,5.3207,+225 07 00 00 00,info@fintech-ci.org,https://fintech-ci.org
ASSOCIATION_ENTREPRENEURIALE,Privé,VITIB,Association du Village des Technologies,"[Tech ecosystem,Innovation,Digital transformation,Events]",,"[tech,innovation,digital]",Côte d'Ivoire,Lagunes,Abidjan,"Zone 3, Treichville",-4.0050,5.2900,+225 21 00 00 00,contact@vitib.ci,https://vitib.ci
ASSOCIATION_ENTREPRENEURIALE,Privé,UNICI,Union Nationale des Investisseurs de CI,"[Advocacy investisseurs,Capital local,Deal syndication,Formation]",,"[investissement,capital,advocacy]",Côte d'Ivoire,Lagunes,Abidjan,Plateau,-4.0142,5.3207,+225 20 00 00 00,unici@investisseurs-ci.org,
ASSOCIATION_ENTREPRENEURIALE,Privé,APBEF-CI,Association Professionnelle des Banques et Établissements Financiers,"[Régulation bancaire,Formation finance,Standards,Compliance]",,"[banques,finance,regulation]",Côte d'Ivoire,Lagunes,Abidjan,Plateau,-4.0142,5.3207,+225 20 00 00 00,apbef@banques-ci.org,https://apbef-ci.org
ASSOCIATION_ENTREPRENEURIALE,Privé,GOTIC,Groupement des Opérateurs du Secteur des TIC,"[Plaidoyer TIC,Formation tech,Standards,Innovation]",,"[tic,tech,formation]",Côte d'Ivoire,Lagunes,Abidjan,Cocody,-3.9900,5.3500,+225 07 00 00 00,info@gotic.ci,https://gotic.ci
ASSOCIATION_ENTREPRENEURIALE,Privé,REJEC,Réseau des Jeunes Entrepreneurs de CI,"[Entrepreneuriat jeune,Mentorat,Pitch competitions,Formation]",,"[jeunesse,entrepreneuriat,mentorat]",Côte d'Ivoire,National,National,Cocody,-3.9900,5.3500,+225 07 00 00 00,contact@rejec.ci,https://rejec.ci
ASSOCIATION_ENTREPRENEURIALE,Privé,AFEM-CI,Association des Femmes Entrepreneures et des Métiers,"[Femmes entrepreneures,Formation métiers,Autonomisation,Microfinance]",,"[femmes,metiers,formation]",Côte d'Ivoire,National,National,Yopougon,-4.0900,5.3370,+225 23 00 00 00,afem@femmes-entrepreneurs.ci,
CABINET_CONSEIL,Privé,ESPartners,Cabinet de conseil international en développement entrepreneurial,"[Consulting stratégique PME,Design programmes incubation,Études marché,Levée fonds]",,"[consulting,stratégie,écosystème]",Côte d'Ivoire,Lagunes,Abidjan,Cocody Riviera,-3.9700,5.3400,,info@espartners.co,http://www.espartners.co
CABINET_JURIDIQUE,LegalTech,Legafrik,Plateforme juridique en ligne pour entrepreneurs,"[Création entreprise en ligne,Domiciliation,Dépôt marque,Contrats,Chatbot juridique]",,"[legaltech,formalisation,juridique en ligne]",Côte d'Ivoire,Lagunes,Abidjan,"II Plateaux, Cocody 7è Tranche",-3.9872,5.3681,+225 07 07 59 35 95,contact@legafrik.com,https://www.legafrik.ci
CABINET_JURIDIQUE,Privé,FDKA,Cabinet d'avocats d'affaires international,"[Droit des affaires,M&A,Arbitrage,Droit OHADA,Private equity]",,"[avocat,affaires,international]",Côte d'Ivoire,Lagunes,Abidjan,"Résidence les Harmonies, Plateau",-4.0142,5.3207,+225 27 20 21 20 31,contact@fdka.ci,https://fdka.ci
CABINET_JURIDIQUE,Privé,Bilé-Aka Brizoua-Bi & Associés,Cabinet d'avocats leader en Côte d'Ivoire,"[Corporate,Finance,Contentieux,Arbitrage,Conseil stratégique]",,"[avocat,corporate,finance]",Côte d'Ivoire,Lagunes,Abidjan,"7 Boulevard Latrille, Cocody",-3.9872,5.3681,+225 27 22 40 64 30,contact@bilebrizoua.ci,https://bilebrizoua.ci
CABINET_JURIDIQUE,Privé,SCPA KADJO-KADJO & Associés,Cabinet spécialisé droit des affaires OHADA,"[Droit OHADA,Fiscalité,Contentieux commercial,Propriété intellectuelle]",,"[avocat,ohada,fiscalite]",Côte d'Ivoire,Lagunes,Abidjan,Plateau,-4.0142,5.3207,+225 20 00 00 00,cabinet@kadjo-associes.ci,
CABINET_JURIDIQUE,Privé,Me DEGNY DAILLY Sylvie,Avocate spécialisée startups et tech,"[Droit du numérique,Propriété intellectuelle,Startups,Levées de fonds]",,"[avocat,tech,startup]",Côte d'Ivoire,Lagunes,Abidjan,Cocody,-3.9900,5.3500,+225 07 00 00 00,sdegny@avocat-tech.ci,
CABINET_JURIDIQUE,Privé,COFINA CONSEIL JURIDIQUE,Cabinet conseil juridique et fiscal PME,"[Conseil juridique PME,Optimisation fiscale,Conformité,Formation]",,"[conseil juridique,fiscal,pme]",Côte d'Ivoire,Lagunes,Abidjan,Zone 4,-3.9920,5.2950,+225 21 00 00 00,conseil@cofina-juridique.ci,
CABINET_JURIDIQUE,Privé,ASAFO & Co,Cabinet d'avocats panafricain,"[Droit des affaires régional,UEMOA,CEDEAO,Investment law]",,"[avocat,regional,investissement]",Côte d'Ivoire,Lagunes,Abidjan,Plateau,-4.0142,5.3207,+225 20 00 00 00,abidjan@asafo.com,https://asafo.com
CABINET_JURIDIQUE,Privé,YAO & Associates,Cabinet conseil juridique entrepreneuriat social,"[Impact investing,Entreprises sociales,Compliance ESG,B-Corp]",,"[avocat,impact,esg]",Côte d'Ivoire,Lagunes,Abidjan,Cocody,-3.9900,5.3500,+225 07 00 00 00,contact@yao-associates.ci,
CABINET_JURIDIQUE,Privé,Ordre des Avocats de Côte d'Ivoire,Barreau de Côte d'Ivoire,"[Annuaire avocats,Aide juridictionnelle,Formation,Déontologie]",,"[avocat,barreau,ordre]",Côte d'Ivoire,Lagunes,Abidjan,"Palais de Justice, Plateau",-4.0142,5.3207,+225 20 00 00 00,barreau@avocats-ci.org,https://ordredesavocats-ci.net
CABINET_JURIDIQUE,Privé,Cabinet KOFFI & Partenaires,Cabinet spécialisé restructuration PME,"[Restructuration,Redressement,Médiation commerciale,Recouvrement]",,"[avocat,restructuration,mediation]",Côte d'Ivoire,Lagunes,Abidjan,Plateau,-4.0142,5.3207,+225 20 00 00 00,cabinet@koffi-partners.ci,
CABINET_JURIDIQUE,Privé,AHOU Legal,Cabinet boutique droit des technologies,"[Fintech law,Data protection,E-commerce,Blockchain]",,"[avocat,fintech,data]",Côte d'Ivoire,Lagunes,Abidjan,Cocody,-3.9900,5.3500,+225 07 00 00 00,info@ahou-legal.ci,
CABINET_CONSEIL,International,KPMG Côte d'Ivoire,Cabinet Big Four audit et conseil,"[Audit,Advisory,Tax,Deal advisory,PME services]",,"[audit,conseil,fiscalite]",Côte d'Ivoire,Lagunes,Abidjan,"Immeuble Woodin Center, Plateau",-4.0142,5.3207,+225 20 22 57 53,ci-contact@kpmg.ci,https://kpmg.com/ci
CABINET_CONSEIL,International,PwC Côte d'Ivoire,PricewaterhouseCoopers CI,"[Assurance,Tax,Advisory,Deals,700+ staff]",,"[audit,conseil,fiscalite]",Côte d'Ivoire,Lagunes,Abidjan,Immeuble Crosson-Duplessis,-4.0142,5.3207,+225 20 31 54 00,pwc.ci@pwc.com,https://pwc.com/ci
CABINET_CONSEIL,International,Deloitte Côte d'Ivoire,Cabinet Big Four audit et conseil,"[Audit,Consulting,Risk advisory,Financial advisory,Tax]",,"[audit,conseil,risque]",Côte d'Ivoire,Lagunes,Abidjan,"Boulevard du Gabon, Plateau",-4.0142,5.3207,+225 20 32 28 88,cideloitte@deloitte.ci,https://deloitte.com/ci
CABINET_CONSEIL,International,EY Côte d'Ivoire,Ernst & Young CI,"[Assurance,Tax,Transaction advisory,Consulting,Forensics]",,"[audit,conseil,transaction]",Côte d'Ivoire,Lagunes,Abidjan,"5 Avenue Marchand, Plateau",-4.0142,5.3207,+225 20 33 17 00,ey.cotedivoire@ey.com,https://ey.com/ci
CABINET_CONSEIL,International,Grant Thornton CI,Cabinet audit et conseil international,"[Audit,Tax advisory,Business consulting,Recovery & Reorganisation]",,"[audit,conseil,restructuration]",Côte d'Ivoire,Lagunes,Abidjan,"Immeuble Ollo, Plateau",-4.0142,5.3207,+225 20 30 02 00,info@ci.gt.com,https://grantthornton.ci
CABINET_CONSEIL,Local,MS International,Premier cabinet conseil ivoirien,"[Strategy consulting,Organisation,Change management,UEMOA expertise]",,"[strategie,organisation,conseil]",Côte d'Ivoire,Lagunes,Abidjan,Deux-Plateaux,-3.9872,5.3681,+225 22 52 00 00,contact@m-s-international.com,https://m-s-international.com
CABINET_CONSEIL,Local,HASEL Consulting,Cabinet conseil PME et startups,"[Business plan,Levée de fonds,Stratégie PME,Formation dirigeants]",,"[conseil,pme,strategie]",Côte d'Ivoire,Lagunes,Abidjan,Cocody,-3.9900,5.3500,+225 07 00 00 00,info@haselconsulting.com,https://haselconsulting.com
CABINET_CONSEIL,International,BDO Côte d'Ivoire,5ème réseau mondial audit et conseil,"[Audit,Tax,Advisory,Outsourcing,IT consulting]",,"[audit,conseil,outsourcing]",Côte d'Ivoire,Lagunes,Abidjan,Plateau,-4.0142,5.3207,+225 20 30 00 00,info@bdo.ci,https://bdo.ci
CABINET_CONSEIL,International,Mazars Côte d'Ivoire,Cabinet audit et conseil international,"[Audit,Tax,Financial advisory,Consulting,Accounting]",,"[audit,conseil,comptabilite]",Côte d'Ivoire,Lagunes,Abidjan,Plateau,-4.0142,5.3207,+225 20 22 29 29,contact@mazars.ci,https://mazars.ci
CABINET_CONSEIL,Local,Performances Management Consulting,Cabinet conseil en management,"[Organisation,RH,Stratégie,Digital transformation,Change management]",,"[management,rh,transformation]",Côte d'Ivoire,Lagunes,Abidjan,Cocody,-3.9900,5.3500,+225 22 00 00 00,contact@performances-mc.com,https://performances-mc.com
CABINET_CONSEIL,Local,Afrika Stratégies,Cabinet conseil stratégie et communication,"[Stratégie d'entreprise,Communication,Marketing,Études de marché]",,"[strategie,communication,marketing]",Côte d'Ivoire,Lagunes,Abidjan,Marcory,-3.9920,5.2950,+225 21 00 00 00,contact@afrika-strategies.com,
CABINET_CONSEIL,Local,Bloomfield Investment Corporation,Agence notation et conseil financier,"[Rating UEMOA,Advisory,Research,Risk analysis]",,"[notation,finance,risque]",Côte d'Ivoire,Lagunes,Abidjan,Plateau,-4.0142,5.3207,+225 20 21 57 47,info@bloomfield-investment.com,https://bloomfield-investment.com
CABINET_CONSEIL,Local,Phoenix Capital Advisory,Conseil en fusion-acquisition,"[M&A advisory,Valuation,Due diligence,Capital raising]",,"[fusion acquisition,valorisation,conseil]",Côte d'Ivoire,Lagunes,Abidjan,Plateau,-4.0142,5.3207,+225 20 00 00 00,advisory@phoenix-capital.ci,
CABINET_CONSEIL,Local,Saracen Partners,Cabinet conseil transformation digitale,"[Digital strategy,IT consulting,Process optimization,Data analytics]",,"[digital,transformation,it]",Côte d'Ivoire,Lagunes,Abidjan,Cocody,-3.9900,5.3500,+225 07 00 00 00,info@saracen-partners.ci,
CABINET_CONSEIL,Local,Africa Business Consulting,Conseil développement business Afrique,"[Market entry,Partner search,Feasibility studies,Project management]",,"[business development,etudes,projet]",Côte d'Ivoire,Lagunes,Abidjan,Zone 4,-3.9920,5.2950,+225 21 00 00 00,info@abc-consulting.ci,
CABINET_CONSEIL,Local,Nexus Conseils,Cabinet conseil multisectoriel,"[Conseil fiscal,Audit interne,Formation,Accompagnement PME]",,"[fiscal,audit,formation]",Côte d'Ivoire,Lagunes,Abidjan,Riviéra 3,-3.9700,5.3400,+225 22 00 00 00,contact@nexus-conseils.ci,
CABINET_CONSEIL,International,Dalberg Advisors,Conseil en impact et développement,"[Impact strategy,Development consulting,Social innovation,ESG]",,"[impact,developpement,esg]",Côte d'Ivoire,Lagunes,Abidjan,Via bureau Dakar,-4.0305,5.3364,,cotedivoire@dalberg.com,https://dalberg.com
CABINET_CONSEIL,Local,Entrepreneurial Solutions Partners,Solutions entrepreneuriales intégrées,"[Incubation support,Business development,Training,Investment readiness]",,"[entrepreneuriat,formation,investissement]",Côte d'Ivoire,Lagunes,Abidjan,Cocody,-3.9900,5.3500,+225 07 00 00 00,esp@esp-partners.com,
CABINET_CONSEIL,Local,Afrique Emergence & Investissements,Conseil en investissement et développement,"[Investment advisory,PPP structuring,Project finance,Fundraising]",,"[investissement,ppp,financement]",Côte d'Ivoire,Lagunes,Abidjan,Plateau,-4.0142,5.3207,+225 20 00 00 00,,
CABINET_CONSEIL,International,Roland Berger,Cabinet stratégie allemand,"[Strategy consulting,Restructuring,Digital,Performance improvement]",,"[strategie,restructuration,digital]",Côte d'Ivoire,Lagunes,Abidjan,Via bureau Casablanca,-4.0305,5.3364,,abidjan@rolandberger.com,https://rolandberger.com
AUTORITE_REGULATION,Public,ARTCI,Autorité de Régulation des Télécommunications/TIC,"[Régulation télécoms,Licences télécoms,Cybersécurité,Protection consommateurs]",,"[regulation,telecom,tic]",Côte d'Ivoire,Lagunes,Abidjan,Marcory Anoumanbo,-3.9800,5.3000,+225 27 20 34 43 73,contact@artci.ci,http://www.artci.ci
FISCALITE,Public,DGI - Direction Générale des Impôts,Administration fiscale de Côte d'Ivoire,"[Enregistrement fiscal,E-impôts,Attestation fiscale,Conseil fiscal PME]",,"[fiscal,impots,administration]",Côte d'Ivoire,Lagunes,Abidjan,"Plateau, Rue des Banques",-4.0142,5.3207,+225 27 20 30 80 00,,http://www.dgi.gouv.ci
FISCALITE,Public,Direction Générale des Douanes,Administration douanière de Côte d'Ivoire,"[Dédouanement,Tarifs douaniers,Régimes économiques,GUCE,Certification OEA]",,"[douanes,commerce,import export]",Côte d'Ivoire,Lagunes,Abidjan,"Immeuble la Rotonde, Plateau",-4.0142,5.3207,+225 27 20 21 06 30,,http://www.douanes.ci
ORGANISATION_INTERNATIONALE,Multilatéral,Banque Mondiale,Institution de Bretton Woods,"[PARE-PME 15M USD,LTIF startups,Doing Business,Technical assistance,IFC]",,"[developpement,financement,assistance technique]",Côte d'Ivoire,Lagunes,Abidjan,"01 BP 1850, Deux-Plateaux Cocody",-3.9872,5.3681,+225 27 22 400 400,cotedivoire@worldbank.org,https://worldbank.org/cotedivoire
ORGANISATION_INTERNATIONALE,Multilatéral,IFC - Société Financière Internationale,Branche secteur privé Groupe Banque Mondiale,"[Portfolio 761M USD,Banking facilities,Advisory services,Blended finance]",,"[investissement,secteur prive,conseil]",Côte d'Ivoire,Lagunes,Abidjan,Cocody,-3.9900,5.3500,+225 22 40 04 00,ifc-ci@ifc.org,https://ifc.org
ORGANISATION_INTERNATIONALE,Bilatéral,AFD - Agence Française de Développement,Agence de développement France,"[Choose Africa,Digital Africa,Proparco,Ambition PME,Meet Africa]",,"[developpement,france,financement]",Côte d'Ivoire,Lagunes,Abidjan,"Rue du Dr Jamot, Plateau",-4.0142,5.3207,+225 27 20 30 18 50,afdabidjan@afd.fr,https://www.afd.fr
ORGANISATION_INTERNATIONALE,Bilatéral,GIZ - Coopération Allemande,Agence de coopération technique allemande,"[ProDEC économie,Invest for Jobs,Formation professionnelle,Green economy]",,"[cooperation,allemagne,formation]",Côte d'Ivoire,Lagunes,Abidjan,"II Plateaux, Cocody Ambassades",-3.9850,5.3650,+225 27 22 52 34 00,giz-cotedivoire@giz.de,https://www.giz.de
ORGANISATION_INTERNATIONALE,Fondation Privée,Tony Elumelu Foundation,Fondation entrepreneuriat africain,"[TEF Program,1000 entrepreneurs/an,5000 USD seed,Training,Mentoring]",,"[startups africaines,empowerment,financement seed]",Nigeria,Lagunes,Abidjan,Via online platform,-4.0305,5.3364,,info@tonyelumelufoundation.org,https://tonyelumelufoundation.org
COOPERATION_DIASPORA,UE & Diaspora,MEET Africa,Programme UE pour entrepreneurs diaspora africaine,"[Identification projets,Incubation Europe+Afrique,Subvention 15K EUR,Mentorat]",,"[diaspora,UE,co-développement]",Côte d'Ivoire/Europe,Abidjan/Paris,Abidjan/Paris,Coordination CEPICI/Expertise France,-4.0142,5.3207,,info@meetafrica.fr,https://www.meetafrica.fr
COOPERATION_DIASPORA,Public,Forum de la Diaspora Ivoirienne,Événement institutionnel pour impliquer la diaspora,"[Conférence annuelle,Panels investissements,B2B diaspora,Networking]",,"[diaspora,forum économique,intégration]",Côte d'Ivoire,Yamoussoukro,Yamoussoukro,Hôtel Parlementaire,-5.2728,6.8181,,diaspora@mae.ci,http://www.diasporacotedivoire.org
COOPERATION_DIASPORA,Diaspora/Privé,225 Business Club,Réseau de professionnels de la diaspora ivoirienne,"[Réseau informel,Plateforme échanges,Mentorat,Co-investissement]",,"[diaspora business,réseau social,mentoring]",France/Canada,Paris/Montréal,Abidjan,-4.0305,5.3364,,225businessclub@gmail.com,
COOPERATION_DIASPORA,Privé,ADECI,Association de la Diaspora Entrepreneuriale,"[Investment facilitation,Knowledge transfer,Mentoring,Business linkages]",,"[diaspora,investissement,mentorat]",Côte d'Ivoire,Lagunes,Abidjan,Abidjan,-4.0305,5.3364,+225 07 00 00 00,contact@adeci.org,https://adeci.org
ORGANISATION_INTERNATIONALE,Bilatéral,USAID,Agence américaine pour le développement,"[AWE women program,YALI youth,MCC 536M USD,Trade hubs]",,"[developpement,usa,commerce]",Côte d'Ivoire,Lagunes,Abidjan,Cocody Riviéra,-3.9700,5.3400,+225 22 49 43 00,usaidci@usaid.gov,https://usaid.gov/cotedivoire
ORGANISATION_INTERNATIONALE,Multilatéral,Délégation Union Européenne,Représentation de l'UE en Côte d'Ivoire,"[100M EUR BNI partnership,Global Gateway,Team Europe,Green Deal]",,"[europe,partenariat,financement]",Côte d'Ivoire,Lagunes,Abidjan,Cocody Ambassades,-3.9850,5.3650,+225 22 48 24 00,delegation-ivory-coast@eeas.europa.eu,https://eeas.europa.eu/cotedivoire
ORGANISATION_INTERNATIONALE,UN,PNUD,Programme des Nations Unies pour le Développement,"[Timbuktoo initiative,Innovation labs,SDGs implementation,Youth programs]",,"[developpement,onu,innovation]",Côte d'Ivoire,Lagunes,Abidjan,Cocody Ambassades,-3.9850,5.3650,+225 20 31 55 00,registry.ci@undp.org,https://undp.org/cotedivoire
ORGANISATION_INTERNATIONALE,UN,OIT,Organisation Internationale du Travail,"[Decent work,Youth employment,Social protection,Skills development]",,"[emploi,travail,formation]",Côte d'Ivoire,Lagunes,Abidjan,Plateau,-4.0142,5.3207,+225 20 31 89 00,abidjan@ilo.org,https://ilo.org/cotedivoire
ORGANISATION_INTERNATIONALE,Bilatéral,JICA,Agence Japonaise de Coopération,"[Kaizen productivity,Technical training,Infrastructure,Innovation support]",,"[japon,cooperation,formation]",Côte d'Ivoire,Lagunes,Abidjan,Cocody,-3.9900,5.3500,+225 22 44 38 88,ci_oso_rep@jica.go.jp,https://jica.go.jp
ORGANISATION_INTERNATIONALE,Multilatéral,BOAD,Banque Ouest Africaine de Développement,"[PME financing,Regional integration,Infrastructure,Green bonds]",,"[developpement,uemoa,financement]",Côte d'Ivoire,Lagunes,Abidjan,Avenue Joseph Anoma,-4.0142,5.3207,+225 20 30 12 44,boadci@boad.org,https://boad.org
ORGANISATION_INTERNATIONALE,Multilatéral,BEI,Banque Européenne d'Investissement,"[Global Gateway,Sustainable finance,Climate action,SME credit lines]",,"[europe,investissement,climat]",Côte d'Ivoire,Lagunes,Abidjan,Via bureau régional,-4.0305,5.3364,+225 20 00 00 00,abidjan@eib.org,https://eib.org
ORGANISATION_INTERNATIONALE,UN,ONUDI,Organisation des Nations Unies pour le Développement Industriel,"[Agribusiness development,Quality infrastructure,Green industry,Technology transfer]",,"[industrie,onu,technologie]",Côte d'Ivoire,Lagunes,Abidjan,Plateau,-4.0142,5.3207,+225 20 31 54 00,office.cotedivoire@unido.org,https://unido.org
ASSOCIATION_ENTREPRENEURIALE,Privé,CI20 - Côte d'Ivoire Innovation 20,Patronat des startups ivoiriennes créé en 2021 fédérant les meilleures startups tech du pays,"[Business Club,CI20 CONNECT plateforme,Startup Boost Capital 2 milliards FCFA,Plaidoyer Startup Act,Talent Link avec AEJ]",,"[startup,tech,innovation,patronat]",Côte d'Ivoire,Lagunes,Abidjan,"Maison de l'Entreprise, Plateau",-4.0142,5.3207,,contact@ci20.net,https://www.ci20.net
ASSOCIATION_ENTREPRENEURIALE,Privé,Abidjanaises In Tech,Club d'affaires fédérant 700+ femmes professionnelles du numérique en CI et diaspora,"[Networking femmes tech,Campus Start-ups 20+ startups,Bootcamps formation,Événements CAN tech,Talk-show dirigeantes]",,"[femmes,tech,networking,inclusion]",Côte d'Ivoire,Lagunes,Abidjan,Abidjan,-4.0305,5.3364,,contact@abidjanaisesintech.ci,https://www.abidjanaisesintech.ci
ASSOCIATION_ENTREPRENEURIALE,Réseau régional,Africaines In Tech,Réseau d'expertise tech féminin présent dans 4 pays (CI, Togo, Sénégal, Cameroun),"[Vivier expertes tech,Formation leadership,Networking régional,Mentorat femmes,Opportunités affaires]",,"[femmes,tech,panafricain,expertise]",Côte d'Ivoire/Regional,Afrique de l'Ouest,Abidjan/Lomé/Dakar/Douala,Multivilles,-4.0305,5.3364,,contact@africainesintech.com,https://africainesintech.com
ASSOCIATION_ENTREPRENEURIALE,Privé,Fondation SEPHIS,Fondation créée en 2009 pour l'autonomisation des femmes entrepreneures,"[AWF program accélération,1700+ PME femmes formées,Inclusion financière 10M EUR,FILF forum annuel,Programme Ellever Ecobank]",,"[femmes,entrepreneuriat,formation,financement]",Côte d'Ivoire,Lagunes,Abidjan,"Cocody 9è tranche, Immeuble Derra",-3.9900,5.3500,,info@fondationsephis.org,https://fondationsephis.org
ASSOCIATION_ENTREPRENEURIALE,Privé,JCI Côte d'Ivoire,Jeune Chambre Internationale pour développement personnel 18-40 ans,"[Leadership training,32 chapitres locaux,Formation soft skills,Service communautaire,Réseau international]",,"[jeunesse,leadership,développement personnel]",Côte d'Ivoire,National,National,Plateau,-4.0142,5.3207,+225 07 00 00 00,president@jci-ci.org,https://jci-ci.org
INCUBATEUR_ACCELERATEUR,ONG,Fondation Jeunesse Numérique,Incubateur gouvernemental pour lutter contre chômage jeunes via TIC,"[Incubation startups,Formation numérique,Bootcamps intensifs,Smart Up program,Fab lab accès]",,"[jeunesse,numérique,incubation,emploi]",Côte d'Ivoire,Lagunes,Abidjan,Plateau,-4.0142,5.3207,,contact@fjn.ci,https://fjn.ci
CENTRE_FORMATION,Privé,DIGI Femmes,Initiative de formation à l'entrepreneuriat et compétences numériques pour femmes,"[Formation digitale femmes,Entrepreneuriat numérique,Compétences tech,Prix innovation 2024]",,"[femmes,digital,formation,innovation]",Côte d'Ivoire,Lagunes,Abidjan,Abidjan,-4.0305,5.3364,,contact@digifemmes.ci,
CENTRE_FORMATION,Privé,StemBlab,Organisation promouvant compétences numériques et innovation technologique,"[Formation STEM,Innovation tech,Education numérique,Prix innovation 2024]",,"[stem,education,innovation,tech]",Côte d'Ivoire,Lagunes,Abidjan,Abidjan,-4.0305,5.3364,,info@stemblab.ci,
CENTRE_FORMATION,Public,Programme GENIE,Initiative gouvernementale créant 35 centres numériques pour emploi jeunes,"[35 centres numériques,Formation compétences digitales,Insertion professionnelle,230M emplois numériques 2030]",,"[gouvernement,emploi,digital,jeunesse]",Côte d'Ivoire,National,National,National,-4.0305,5.3364,,info@genie.gouv.ci,
ORGANISATION_INTERNATIONALE,Public-Privé,Employment4Youth,Projet ONUDI/Allemagne pour emploi jeunes via Industrie 4.0,"[Formation TIC,Agro-industrie 4.0,Nouvelles technologies,Création emplois femmes/jeunes]",,"[emploi,jeunesse,industrie 4.0,coopération]",Côte d'Ivoire,Lagunes,Abidjan,Abidjan,-4.0305,5.3364,,info@employment4youth.ci,
ASSOCIATION_ENTREPRENEURIALE,Privé,Code.ci,Association de développeurs fondée en 2014 par Régis Bamba,"[Fédération développeurs,Open data CI,Solutions socio-économiques,Projets collaboratifs]",,"[développeurs,open data,tech,innovation]",Côte d'Ivoire,Lagunes,Abidjan,Abidjan,-4.0305,5.3364,,contact@code.ci,
HUB_INNOVATION,Privé,VITIB - Village des Technologies,Association promotion écosystème tech et transformation digitale,"[Tech ecosystem,Innovation events,Digital transformation,Business networking]",,"[tech,innovation,digital,écosystème]",Côte d'Ivoire,Lagunes,Abidjan,"Zone 3, Treichville",-4.0050,5.2900,+225 21 00 00 00,contact@vitib.ci,https://vitib.ci
ASSOCIATION_ENTREPRENEURIALE,Privé,AFCI - Association Fintech CI,Association des entreprises fintech de Côte d'Ivoire,"[Plaidoyer régulation,Standards fintech,Innovation financière,Networking secteur]",,"[fintech,innovation,régulation,finance]",Côte d'Ivoire,Lagunes,Abidjan,Plateau,-4.0142,5.3207,+225 07 00 00 00,info@fintech-ci.org,https://fintech-ci.org
ASSOCIATION_ENTREPRENEURIALE,Privé,REJEC - Réseau des Jeunes Entrepreneurs de CI,Réseau national pour entrepreneuriat jeune,"[Mentorat jeunes,Pitch competitions,Formation entrepreneuriale,Networking national]",,"[jeunesse,entrepreneuriat,mentorat,réseau]",Côte d'Ivoire,National,National,Cocody,-3.9900,5.3500,+225 07 00 00 00,contact@rejec.ci,https://rejec.ci
ASSOCIATION_ENTREPRENEURIALE,Privé,225 Business Club,Réseau diaspora ivoirienne connectant talents expatriés et opportunités CI,"[Réseau diaspora business,Afterworks networking,Webinaires sectoriels,Co-investissement,Mentorat]",,"[diaspora,business,networking,investissement]",France/Canada,Paris/Montréal,Abidjan,International,-4.0305,5.3364,,225businessclub@gmail.com,
INCUBATEUR_ACCELERATEUR,Privé,MStudio VC (Magic Studio),Premier startup studio d'Afrique francophone lancé en 2021,"[Co-création startups,Financement pré-amorçage,Ressources mutualisées,Économie informelle tech]",,"[startup studio,mobile,économie informelle]",Côte d'Ivoire,Lagunes,Abidjan,Cocody,-3.9900,5.3500,,hello@mstudio.vc,https://www.mstudio.vc
HUB_INNOVATION,Privé,Akendewa Tech Hub,Un des premiers tech hubs communautaires CI depuis 2009,"[Communauté développeurs,Barcamp Abidjan,Open source,Formations coding,Hackathons]",,"[tech community,open source,pionnier]",Côte d'Ivoire,Lagunes,Abidjan,Abidjan,-4.0305,5.3364,+225 07 08 09 10,contact@akendewa.org,http://akendewa.org
HUB_INNOVATION,Communautaire,O'Village,Tiers-lieu innovation sociale et numérique créé en 2014,"[Ubuntu culture,Logiciels libres,Ateliers pratiques,Coding dojos,Projets civiques]",,"[open source,innovation sociale,communauté]",Côte d'Ivoire,Lagunes,Abidjan,Yopougon Niangon,-4.0900,5.3370,,info@ovillage.ci,http://www.ovillage.ci
ESPACE_COWORKING,Association,Baby Lab,Premier FabLab de Côte d'Ivoire créé en 2014 à Abobo,"[FabLab MIT,Formation enfants tech,Robotique,Réparation informatique,Projets communautaires]",,"[fablab,éducation numérique,inclusion]",Côte d'Ivoire,Lagunes,Abidjan,Abobo Derrière-rails,-4.0160,5.4180,,babylab@gmail.com,https://www.fablabs.io/labs/babylab
FONDS_INVESTISSEMENT,International,Digital Africa,Initiative 65M EUR pour soutenir entrepreneuriat tech africain,"[Fuzé funding 20-50K EUR,Plateforme networking,Label Digital Africa,Support incubateurs]",,"[financement,tech,innovation,panafricain]",France/Afrique,International,Abidjan,Via plateforme,-4.0305,5.3364,,contact@digital-africa.co,https://digital-africa.co
INCUBATEUR_ACCELERATEUR,Corporate,Yiri by AGL,Hub innovation logistique créé en 2023 par Africa Global Logistics,"[Accélération 6 mois,Solutions logistiques,Tech laboratory,Digital transformation,Talent catalyst]",,"[logistique,innovation,corporate,supply chain]",Côte d'Ivoire,Lagunes,Abidjan,"Zone Portuaire, Marcory",-4.0000,5.2800,,yiri@aglgroup.com,https://aglgroup.com/innovation
MICROFINANCE,Privé,Programme Fin'Elle (COFINA),Programme dédié entrepreneuriat féminin par COFINA,"[Crédits femmes entrepreneurs,Accompagnement sur mesure,Formation business,Conditions favorables]",,"[femmes,financement,entrepreneuriat,microfinance]",Côte d'Ivoire,Lagunes,Abidjan,"Plateau, Avenue Lamblin",-4.0142,5.3207,+225 27 20 21 60 50,finelle@cofinacorp.com,http://cofinacorp.com
ASSOCIATION_ENTREPRENEURIALE,Privé,ROADCI,Réseau Ouest Africain des Femmes Entrepreneures,"[Leadership femmes,Commerce transfrontalier,Formation business,Mentorat régional]",,"[femmes,commerce,leadership,régional]",Côte d'Ivoire,Lagunes,Abidjan,Cocody,-3.9900,5.3500,+225 07 00 00 00,cotedivoire@roadci.org,https://roadci.org
ASSOCIATION_ENTREPRENEURIALE,Privé,RICOMEN,Réseau Ivoirien des Commerçantes,"[Commerce femmes,Microfinance access,Formation commerce,Plaidoyer genre]",,"[femmes,commerce,microfinance,réseau]",Côte d'Ivoire,National,National,Adjamé,-4.0260,5.3360,+225 07 00 00 00,ricomen@gmail.com,
ASSOCIATION_ENTREPRENEURIALE,Privé,AFEM-CI,Association Femmes Entrepreneures et des Métiers,"[Formation métiers,Autonomisation femmes,Microfinance,Entrepreneuriat féminin]",,"[femmes,métiers,formation,autonomisation]",Côte d'Ivoire,National,National,Yopougon,-4.0900,5.3370,+225 23 00 00 00,afem@femmes-entrepreneurs.ci,